ONEWEB-0403             
1 50483U 21132Q   25211.93241015  .00000039  00000+0  65722-4 0  9992
2 50483  87.9126  39.2645 0001716  91.7258 268.4070 13.18687037179256
ONEWEB-0404             
1 50484U 21132R   25211.89320068 -.00000261  00000+0 -77112-3 0  9998
2 50484  87.8810  85.1139 0001513  90.0367 270.0934 13.11415324173581
ONEWEB-0405             
1 50485U 21132S   25211.94723786  .00000081  00000+0  17222-3 0  9993
2 50485  87.9123  39.2480 0002074  94.1991 265.9378 13.18687360179657
ONEWEB-0406             
1 50486U 21132T   25211.93734754  .00000022  00000+0  24305-4 0  9996
2 50486  87.9126  39.2724 0001266  96.1054 264.0222 13.18685455179286
ONEWEB-0407             
1 50487U 21132U   25211.93076051 -.00000013  00000+0 -66158-4 0  9990
2 50487  87.9124  39.2588 0001903  93.0005 267.1345 13.18685116179221
ONEWEB-0409             
1 50488U 21132V   25211.89150744 -.00000127  00000+0 -39458-3 0  9996
2 50488  87.8800  85.0753 0001424  81.6940 278.4349 13.11416329173475
ONEWEB-0412             
1 50489U 21132W   25211.91919821  .00000023  00000+0  24766-4 0  9999
2 50489  87.9122  39.2745 0002139  92.5780 267.5597 13.18687545179313
ONEWEB-0413             
1 50490U 21132X   25211.92415536 -.00000052  00000+0 -16579-3 0  9992
2 50490  87.9125  39.2884 0002178  87.5098 272.6283 13.18687036179258
